TIGER-8                 
1 59120U 24043Y   26197.36493418  .00005054  00000+0  10843-3 0  9995
2 59120  97.5575 347.1574 0008920  99.2851 260.9407 15.45180353132291
TIGER-7                 
1 59141U 24043AV  26197.84808696  .00006780  00000+0  12543-3 0  9995
2 59141  97.5519 350.1775 0006756  72.1551 288.0436 15.49371731132560
