{"fetched_at":"2026-07-17T06:38:41.339Z","source":"https://celestrak.org/NORAD/elements/gp.php?NAME=TIGER&FORMAT=JSON","constellation":"oq-technology","records":[{"OBJECT_NAME":"TIGER-8","OBJECT_ID":"2024-043Y","EPOCH":"2026-07-16T08:45:30.313152","CLASSIFICATION_TYPE":"U","MEAN_MOTION":15.45180353,"ECCENTRICITY":0.000892,"INCLINATION":97.5575,"RA_OF_ASC_NODE":347.1574,"ARG_OF_PERICENTER":99.2851,"MEAN_ANOMALY":260.9407,"EPHEMERIS_TYPE":0,"NORAD_CAT_ID":59120,"ELEMENT_SET_NO":999,"REV_AT_EPOCH":13229,"BSTAR":0.00010843,"MEAN_MOTION_DOT":0.00005054,"MEAN_MOTION_DDOT":0},{"OBJECT_NAME":"TIGER-7","OBJECT_ID":"2024-043AV","EPOCH":"2026-07-16T20:21:14.713344","CLASSIFICATION_TYPE":"U","MEAN_MOTION":15.49371731,"ECCENTRICITY":0.0006756,"INCLINATION":97.5519,"RA_OF_ASC_NODE":350.1775,"ARG_OF_PERICENTER":72.1551,"MEAN_ANOMALY":288.0436,"EPHEMERIS_TYPE":0,"NORAD_CAT_ID":59141,"ELEMENT_SET_NO":999,"REV_AT_EPOCH":13256,"BSTAR":0.00012543,"MEAN_MOTION_DOT":0.0000678,"MEAN_MOTION_DDOT":0}]}
